1 66664U 25275A   26071.80448780  .00009714  00000+0  18665-3 0  9993
2 66664  51.6325  56.9556 0007970 185.8192 174.2705 15.48609576556839
1 66906U 98067XS  26071.21883992  .00037736  00000+0  52838-3 0  9999
2 66906  51.6293  56.7987 0002554 123.1889 236.9348 15.56413150 15524
1 66907U 98067XT  26071.32038583  .00181210  00000+0  14377-2 0  9992
2 66907  51.6249  52.2093 0004715  95.5605 264.5930 15.70168045 15591
1 66908U 98067XU  26071.19109037  .00173902  00000+0  13761-2 0  9996
2 66908  51.6251  52.8423 0004849  95.5022 264.6529 15.70253790 15574
1 66909U 98067XV  26071.18756588  .00230471  00000+0  15879-2 0  9992
2 66909  51.6249  52.0679 0005428  93.6368 266.5252 15.73352402 15581
1 66910U 98067XW  26071.31642977  .00160368  00000+0  13157-2 0  9999
2 66910  51.6247  52.1756 0005348 102.3551 257.8045 15.69426523 15596
1 66911U 98067XX  26071.49624840  .00293883  00000+0  17140-2 0  9993
2 66911  51.6223  49.6058 0006975 102.6102 257.5678 15.76985712 15631
1 66912U 98067XY  26071.32923088  .00103874  00000+0  10605-2 0  9991
2 66912  51.6273  53.7798 0003337 105.1050 255.0314 15.64236569 15561
1 67683U 98067XZ  26071.56087589  .00042260  00000+0  69040-3 0  9999
2 67683  51.6314  57.5801 0009510 196.2104 163.8583 15.52078501  5234
1 67684U 98067YA  26071.33596012  .00086646  00000+0  12676-2 0  9999
2 67684  51.6305  58.3289 0011320 184.6561 175.4326 15.54791235  5203
1 67685U 98067YB  26071.36262994  .00049518  00000+0  79543-3 0  9996
2 67685  51.6310  58.5071 0011413 191.9545 168.1176 15.52456287  5202
1 67686U 98067YC  26071.22744255  .00056872  00000+0  89399-3 0  9998
2 67686  51.6318  59.1061 0008121 159.6101 200.5215 15.53033071  5183
1 67687U 98067YD  26071.36505931  .00046655  00000+0  75659-3 0  9992
2 67687  51.6322  58.5246 0008019 163.8991 196.2255 15.52254549  5120
1 67688U 98067YE  26071.42344279  .00054709  00000+0  86834-3 0  9992
2 67688  51.6315  58.1651 0008048 160.8943 199.2351 15.52782613  5134
1 67796U 26031A   26071.80448780  .00009714  00000+0  18665-3 0  9991
2 67796  51.6325  56.9556 0007970 185.8192 174.2705 15.48609576556713
