[{"OBJECT_NAME":"SOYUZ-MS 28","OBJECT_ID":"2025-275A","EPOCH":"2026-03-12T19:18:27.745920","MEAN_MOTION":15.48609576,"ECCENTRICITY":0.000797,"INCLINATION":51.6325,"RA_OF_ASC_NODE":56.9556,"ARG_OF_PERICENTER":185.8192,"MEAN_ANOMALY":174.2705,"EPHEMERIS_TYPE":0,"CLASSIFICATION_TYPE":"U","NORAD_CAT_ID":66664,"ELEMENT_SET_NO":999,"REV_AT_EPOCH":55683,"BSTAR":0.00018665,"MEAN_MOTION_DOT":9.714e-5,"MEAN_MOTION_DDOT":0},{"OBJECT_NAME":"DUPLEX","OBJECT_ID":"1998-067XS","EPOCH":"2026-03-12T05:15:07.769088","MEAN_MOTION":15.5641315,"ECCENTRICITY":0.0002554,"INCLINATION":51.6293,"RA_OF_ASC_NODE":56.7987,"ARG_OF_PERICENTER":123.1889,"MEAN_ANOMALY":236.9348,"EPHEMERIS_TYPE":0,"CLASSIFICATION_TYPE":"U","NORAD_CAT_ID":66906,"ELEMENT_SET_NO":999,"REV_AT_EPOCH":1552,"BSTAR":0.00052838,"MEAN_MOTION_DOT":0.00037736,"MEAN_MOTION_DDOT":0},{"OBJECT_NAME":"ISS OBJECT XT","OBJECT_ID":"1998-067XT","EPOCH":"2026-03-12T07:41:21.335712","MEAN_MOTION":15.70168045,"ECCENTRICITY":0.0004715,"INCLINATION":51.6249,"RA_OF_ASC_NODE":52.2093,"ARG_OF_PERICENTER":95.5605,"MEAN_ANOMALY":264.593,"EPHEMERIS_TYPE":0,"CLASSIFICATION_TYPE":"U","NORAD_CAT_ID":66907,"ELEMENT_SET_NO":999,"REV_AT_EPOCH":1559,"BSTAR":0.0014377,"MEAN_MOTION_DOT":0.0018121,"MEAN_MOTION_DDOT":0},{"OBJECT_NAME":"ISS OBJECT XU","OBJECT_ID":"1998-067XU","EPOCH":"2026-03-12T04:35:10.207968","MEAN_MOTION":15.7025379,"ECCENTRICITY":0.00048498,"INCLINATION":51.6251,"RA_OF_ASC_NODE":52.8423,"ARG_OF_PERICENTER":95.5022,"MEAN_ANOMALY":264.6529,"EPHEMERIS_TYPE":0,"CLASSIFICATION_TYPE":"U","NORAD_CAT_ID":66908,"ELEMENT_SET_NO":999,"REV_AT_EPOCH":1557,"BSTAR":0.0013761345,"MEAN_MOTION_DOT":0.00173902,"MEAN_MOTION_DDOT":0},{"OBJECT_NAME":"SILVERSAT","OBJECT_ID":"1998-067XV","EPOCH":"2026-03-12T04:30:05.692032","MEAN_MOTION":15.73352402,"ECCENTRICITY":0.00054282,"INCLINATION":51.6249,"RA_OF_ASC_NODE":52.0679,"ARG_OF_PERICENTER":93.6368,"MEAN_ANOMALY":266.5252,"EPHEMERIS_TYPE":0,"CLASSIFICATION_TYPE":"U","NORAD_CAT_ID":66909,"ELEMENT_SET_NO":999,"REV_AT_EPOCH":1558,"BSTAR":0.0015879127,"MEAN_MOTION_DOT":0.00230471,"MEAN_MOTION_DDOT":0},{"OBJECT_NAME":"ISS OBJECT XW","OBJECT_ID":"1998-067XW","EPOCH":"2026-03-12T07:35:39.532128","MEAN_MOTION":15.69426523,"ECCENTRICITY":0.0005348,"INCLINATION":51.6247,"RA_OF_ASC_NODE":52.1756,"ARG_OF_PERICENTER":102.3551,"MEAN_ANOMALY":257.8045,"EPHEMERIS_TYPE":0,"CLASSIFICATION_TYPE":"U","NORAD_CAT_ID":66910,"ELEMENT_SET_NO":999,"REV_AT_EPOCH":1559,"BSTAR":0.0013157,"MEAN_MOTION_DOT":0.00160368,"MEAN_MOTION_DDOT":0},{"OBJECT_NAME":"ISS OBJECT XX","OBJECT_ID":"1998-067XX","EPOCH":"2026-03-12T11:54:35.861760","MEAN_MOTION":15.76985712,"ECCENTRICITY":0.0006975,"INCLINATION":51.6223,"RA_OF_ASC_NODE":49.6058,"ARG_OF_PERICENTER":102.6102,"MEAN_ANOMALY":257.5678,"EPHEMERIS_TYPE":0,"CLASSIFICATION_TYPE":"U","NORAD_CAT_ID":66911,"ELEMENT_SET_NO":999,"REV_AT_EPOCH":1563,"BSTAR":0.001714,"MEAN_MOTION_DOT":0.00293883,"MEAN_MOTION_DDOT":0},{"OBJECT_NAME":"ISS OBJECT XY","OBJECT_ID":"1998-067XY","EPOCH":"2026-03-12T07:54:05.548032","MEAN_MOTION":15.64236569,"ECCENTRICITY":0.0003337,"INCLINATION":51.6273,"RA_OF_ASC_NODE":53.7798,"ARG_OF_PERICENTER":105.105,"MEAN_ANOMALY":255.0314,"EPHEMERIS_TYPE":0,"CLASSIFICATION_TYPE":"U","NORAD_CAT_ID":66912,"ELEMENT_SET_NO":999,"REV_AT_EPOCH":1556,"BSTAR":0.0010605,"MEAN_MOTION_DOT":0.00103874,"MEAN_MOTION_DDOT":0},{"OBJECT_NAME":"KNACKSAT-2","OBJECT_ID":"1998-067XZ","EPOCH":"2026-03-12T13:27:39.676896","MEAN_MOTION":15.52078501,"ECCENTRICITY":0.000951,"INCLINATION":51.6314,"RA_OF_ASC_NODE":57.5801,"ARG_OF_PERICENTER":196.2104,"MEAN_ANOMALY":163.8583,"EPHEMERIS_TYPE":0,"CLASSIFICATION_TYPE":"U","NORAD_CAT_ID":67683,"ELEMENT_SET_NO":999,"REV_AT_EPOCH":523,"BSTAR":0.0006904,"MEAN_MOTION_DOT":0.0004226,"MEAN_MOTION_DDOT":0},{"OBJECT_NAME":"GXIBA-1","OBJECT_ID":"1998-067YA","EPOCH":"2026-03-12T08:03:46.954368","MEAN_MOTION":15.54791235,"ECCENTRICITY":0.001132,"INCLINATION":51.6305,"RA_OF_ASC_NODE":58.3289,"ARG_OF_PERICENTER":184.6561,"MEAN_ANOMALY":175.4326,"EPHEMERIS_TYPE":0,"CLASSIFICATION_TYPE":"U","NORAD_CAT_ID":67684,"ELEMENT_SET_NO":999,"REV_AT_EPOCH":520,"BSTAR":0.0012676,"MEAN_MOTION_DOT":0.00086646,"MEAN_MOTION_DDOT":0},{"OBJECT_NAME":"CORAL","OBJECT_ID":"1998-067YB","EPOCH":"2026-03-12T08:42:11.226816","MEAN_MOTION":15.52456287,"ECCENTRICITY":0.0011413,"INCLINATION":51.631,"RA_OF_ASC_NODE":58.5071,"ARG_OF_PERICENTER":191.9545,"MEAN_ANOMALY":168.1176,"EPHEMERIS_TYPE":0,"CLASSIFICATION_TYPE":"U","NORAD_CAT_ID":67685,"ELEMENT_SET_NO":999,"REV_AT_EPOCH":520,"BSTAR":0.00079543,"MEAN_MOTION_DOT":0.00049518,"MEAN_MOTION_DDOT":0},{"OBJECT_NAME":"ISS OBJECT YC","OBJECT_ID":"1998-067YC","EPOCH":"2026-03-12T05:27:31.036320","MEAN_MOTION":15.53033071,"ECCENTRICITY":0.0008121,"INCLINATION":51.6318,"RA_OF_ASC_NODE":59.1061,"ARG_OF_PERICENTER":159.6101,"MEAN_ANOMALY":200.5215,"EPHEMERIS_TYPE":0,"CLASSIFICATION_TYPE":"U","NORAD_CAT_ID":67686,"ELEMENT_SET_NO":999,"REV_AT_EPOCH":518,"BSTAR":0.00089399,"MEAN_MOTION_DOT":0.00056872,"MEAN_MOTION_DDOT":0},{"OBJECT_NAME":"LEOPARD","OBJECT_ID":"1998-067YD","EPOCH":"2026-03-12T08:45:41.124384","MEAN_MOTION":15.52254549,"ECCENTRICITY":0.0008019,"INCLINATION":51.6322,"RA_OF_ASC_NODE":58.5246,"ARG_OF_PERICENTER":163.8991,"MEAN_ANOMALY":196.2255,"EPHEMERIS_TYPE":0,"CLASSIFICATION_TYPE":"U","NORAD_CAT_ID":67687,"ELEMENT_SET_NO":999,"REV_AT_EPOCH":512,"BSTAR":0.00075659,"MEAN_MOTION_DOT":0.00046655,"MEAN_MOTION_DDOT":0},{"OBJECT_NAME":"ISS OBJECT YE","OBJECT_ID":"1998-067YE","EPOCH":"2026-03-12T10:09:45.457056","MEAN_MOTION":15.52782613,"ECCENTRICITY":0.0008048,"INCLINATION":51.6315,"RA_OF_ASC_NODE":58.1651,"ARG_OF_PERICENTER":160.8943,"MEAN_ANOMALY":199.2351,"EPHEMERIS_TYPE":0,"CLASSIFICATION_TYPE":"U","NORAD_CAT_ID":67688,"ELEMENT_SET_NO":999,"REV_AT_EPOCH":513,"BSTAR":0.00086834,"MEAN_MOTION_DOT":0.00054709,"MEAN_MOTION_DDOT":0},{"OBJECT_NAME":"CREW DRAGON 12","OBJECT_ID":"2026-031A","EPOCH":"2026-03-12T19:18:27.745920","MEAN_MOTION":15.48609576,"ECCENTRICITY":0.000797,"INCLINATION":51.6325,"RA_OF_ASC_NODE":56.9556,"ARG_OF_PERICENTER":185.8192,"MEAN_ANOMALY":174.2705,"EPHEMERIS_TYPE":0,"CLASSIFICATION_TYPE":"U","NORAD_CAT_ID":67796,"ELEMENT_SET_NO":999,"REV_AT_EPOCH":55671,"BSTAR":0.00018665,"MEAN_MOTION_DOT":9.714e-5,"MEAN_MOTION_DDOT":0}]
